{"type":"FeatureCollection","features":[{"type":"Feature","properties":{"id":"demo-region","kind":"region","name":"Sample region"},"geometry":{"type":"Polygon","coordinates":[[[42,31],[45,39],[53,42],[62,38],[64,31],[55,28],[47,29],[42,31]]]}},{"type":"Feature","properties":{"id":"demo-settlement-a","kind":"settlement","name":"Sample settlement A"},"geometry":{"type":"Point","coordinates":[51.4,35.7]}},{"type":"Feature","properties":{"id":"demo-route","kind":"route","name":"Sample route"},"geometry":{"type":"LineString","coordinates":[[51.4,35.7],[54.5,36.9],[58.7,37.2]]}}]}
