{"type":"FeatureCollection","features":[{"type":"Feature","properties":{"id":"demo-region","kind":"region","name":"Sample region"},"geometry":{"type":"Polygon","coordinates":[[[44,31],[47,39],[53,43],[60,42],[65,37],[62,30],[54,28],[44,31]]]}},{"type":"Feature","properties":{"id":"demo-settlement-a","kind":"settlement","name":"Sample settlement A"},"geometry":{"type":"Point","coordinates":[51.4,35.7]}},{"type":"Feature","properties":{"id":"demo-settlement-b","kind":"settlement","name":"Sample settlement B"},"geometry":{"type":"Point","coordinates":[59.6,36.3]}},{"type":"Feature","properties":{"id":"demo-route","kind":"route","name":"Sample route"},"geometry":{"type":"LineString","coordinates":[[51.4,35.7],[55.5,34.7],[59.6,36.3]]}}]}
