{"type":"FeatureCollection","features":[{"type":"Feature","properties":{"id":"demo-region","kind":"region","name":"Sample region"},"geometry":{"type":"MultiPolygon","coordinates":[[[[38,33],[42,42],[51,45],[61,43],[64,35],[58,30],[48,30],[38,33]]],[[[66,37],[69,41],[73,40],[72,36],[66,37]]]]}},{"type":"Feature","properties":{"id":"demo-settlement-a","kind":"settlement","name":"Sample settlement A"},"geometry":{"type":"Point","coordinates":[51.4,35.7]}},{"type":"Feature","properties":{"id":"demo-settlement-b","kind":"settlement","name":"Sample settlement B"},"geometry":{"type":"Point","coordinates":[59.6,36.3]}},{"type":"Feature","properties":{"id":"demo-route","kind":"route","name":"Sample route"},"geometry":{"type":"LineString","coordinates":[[51.4,35.7],[54.5,36.9],[59.6,36.3]]}},{"type":"Feature","properties":{"id":"demo-event","kind":"event","name":"Sample event"},"geometry":{"type":"Point","coordinates":[55.4,39.4]}}]}
